ATLAS CENTAUR 2         
1 00694U 63047A   25307.68704762  .00003753  00000+0  45359-3 0  9992
2 00694  30.3517 179.5347 0550211  50.2656 314.5130 14.11372590113807
THOR AGENA D R/B        
1 00733U 64002A   25307.71685897  .00000334  00000+0  13685-3 0  9998
2 00733  99.1224 309.2236 0031925 265.2263  94.5274 14.33925250220248
SL-3 R/B                
1 00877U 64053B   25306.46659134  .00000388  00000+0  10018-3 0  9995
2 00877  65.0778 344.1799 0069992 334.0870  25.6730 14.61210746248205
SL-8 R/B                
1 02802U 67045B   25306.23694949  .00000449  00000+0  13205-3 0  9996
2 02802  74.0112 226.0874 0065643 264.2409  95.1262 14.45489325 70602
SL-8 R/B                
1 03230U 68040B   25307.61781186  .00004416  00000+0  33681-3 0  9999
2 03230  74.0322 211.0789 0023386  64.3489 296.0110 15.02134140 71077
OAO 2                   
1 03597U 68110A   25307.53171404  .00000302  00000+0  86746-4 0  9991
2 03597  34.9932 249.5413 0006222 265.2095  94.7885 14.47206590   813
ISIS 1                  
1 03669U 69009A   25307.58679560  .00000205  00000+0  14403-3 0  9992
2 03669  88.4532 169.0755 1707852 343.8075  11.4242 11.30331999334282
SERT 2                  
1 04327U 70009A   25307.65478031 -.00000004  00000+0  50646-4 0  9992
2 04327  99.2581 252.7480 0005486 120.4216  52.8943 13.58710498762775
SL-3 R/B                
1 05118U 71028B   25307.76017940  .00031051  00000+0  51480-3 0  9994
2 05118  81.2418 206.3884 0022913  22.0433 338.1795 15.51676934969088
ASTEX 1                 
1 05560U 71089A   25307.73052354  .00000708  00000+0  18076-3 0  9996
2 05560  92.7117 111.0050 0016912 143.5889 216.6471 14.50566041844049
SL-8 R/B                
1 05730U 71119B   25307.58447513  .00005893  00000+0  31483-3 0  9994
2 05730  73.8891  50.8912 0561363  43.1597 321.2158 14.34800192637382
OAO 3 (COPERNICUS)      
1 06153U 72065A   25306.31721250  .00000508  00000+0  10890-3 0  9995
2 06153  35.0063 302.9284 0006934 203.1556 173.7631 14.59851633827578
