CCSDS_OMM_VERS = 2.0
CREATION_DATE  = 
ORIGINATOR     = 

OBJECT_NAME    = ATLAS CENTAUR 2
OBJECT_ID      = 1963-047A
CENTER_NAME    = EARTH
REF_FRAME      = TEME
TIME_SYSTEM    = UTC
MEAN_ELEMENT_THEORY = SGP/SGP4

EPOCH          = 2025-11-03T16:29:20.914368
MEAN_MOTION    = 14.11372590
ECCENTRICITY   = .0550211
INCLINATION    = 30.3517
RA_OF_ASC_NODE = 179.5347
ARG_OF_PERICENTER = 50.2656
MEAN_ANOMALY   = 314.5130

EPHEMERIS_TYPE = 0
CLASSIFICATION_TYPE = U
NORAD_CAT_ID   = 694
ELEMENT_SET_NO = 999
REV_AT_EPOCH   = 11380
BSTAR          = .45359E-3
MEAN_MOTION_DOT = .3753E-4
MEAN_MOTION_DDOT = 0

CCSDS_OMM_VERS = 2.0
CREATION_DATE  = 
ORIGINATOR     = 

OBJECT_NAME    = THOR AGENA D R/B
OBJECT_ID      = 1964-002A
CENTER_NAME    = EARTH
REF_FRAME      = TEME
TIME_SYSTEM    = UTC
MEAN_ELEMENT_THEORY = SGP/SGP4

EPOCH          = 2025-11-03T17:12:16.615008
MEAN_MOTION    = 14.33925250
ECCENTRICITY   = .0031925
INCLINATION    = 99.1224
RA_OF_ASC_NODE = 309.2236
ARG_OF_PERICENTER = 265.2263
MEAN_ANOMALY   = 94.5274

EPHEMERIS_TYPE = 0
CLASSIFICATION_TYPE = U
NORAD_CAT_ID   = 733
ELEMENT_SET_NO = 999
REV_AT_EPOCH   = 22024
BSTAR          = .13685E-3
MEAN_MOTION_DOT = .334E-5
MEAN_MOTION_DDOT = 0

CCSDS_OMM_VERS = 2.0
CREATION_DATE  = 
ORIGINATOR     = 

OBJECT_NAME    = SL-3 R/B
OBJECT_ID      = 1964-053B
CENTER_NAME    = EARTH
REF_FRAME      = TEME
TIME_SYSTEM    = UTC
MEAN_ELEMENT_THEORY = SGP/SGP4

EPOCH          = 2025-11-02T11:11:53.491776
MEAN_MOTION    = 14.61210746
ECCENTRICITY   = .0069992
INCLINATION    = 65.0778
RA_OF_ASC_NODE = 344.1799
ARG_OF_PERICENTER = 334.0870
MEAN_ANOMALY   = 25.6730

EPHEMERIS_TYPE = 0
CLASSIFICATION_TYPE = U
NORAD_CAT_ID   = 877
ELEMENT_SET_NO = 999
REV_AT_EPOCH   = 24820
BSTAR          = .10018E-3
MEAN_MOTION_DOT = .388E-5
MEAN_MOTION_DDOT = 0

CCSDS_OMM_VERS = 2.0
CREATION_DATE  = 
ORIGINATOR     = 

OBJECT_NAME    = SL-8 R/B
OBJECT_ID      = 1967-045B
CENTER_NAME    = EARTH
REF_FRAME      = TEME
TIME_SYSTEM    = UTC
MEAN_ELEMENT_THEORY = SGP/SGP4

EPOCH          = 2025-11-02T05:41:12.435936
MEAN_MOTION    = 14.45489325
ECCENTRICITY   = .00656436
INCLINATION    = 74.0112
RA_OF_ASC_NODE = 226.0874
ARG_OF_PERICENTER = 264.2409
MEAN_ANOMALY   = 95.1262

EPHEMERIS_TYPE = 0
CLASSIFICATION_TYPE = U
NORAD_CAT_ID   = 2802
ELEMENT_SET_NO = 999
REV_AT_EPOCH   = 7060
BSTAR          = .13204847E-3
MEAN_MOTION_DOT = .449E-5
MEAN_MOTION_DDOT = 0

CCSDS_OMM_VERS = 2.0
CREATION_DATE  = 
ORIGINATOR     = 

OBJECT_NAME    = SL-8 R/B
OBJECT_ID      = 1968-040B
CENTER_NAME    = EARTH
REF_FRAME      = TEME
TIME_SYSTEM    = UTC
MEAN_ELEMENT_THEORY = SGP/SGP4

EPOCH          = 2025-11-03T14:49:38.944704
MEAN_MOTION    = 15.02134140
ECCENTRICITY   = .0023386
INCLINATION    = 74.0322
RA_OF_ASC_NODE = 211.0789
ARG_OF_PERICENTER = 64.3489
MEAN_ANOMALY   = 296.0110

EPHEMERIS_TYPE = 0
CLASSIFICATION_TYPE = U
NORAD_CAT_ID   = 3230
ELEMENT_SET_NO = 999
REV_AT_EPOCH   = 7107
BSTAR          = .33681E-3
MEAN_MOTION_DOT = .4416E-4
MEAN_MOTION_DDOT = 0

CCSDS_OMM_VERS = 2.0
CREATION_DATE  = 
ORIGINATOR     = 

OBJECT_NAME    = OAO 2
OBJECT_ID      = 1968-110A
CENTER_NAME    = EARTH
REF_FRAME      = TEME
TIME_SYSTEM    = UTC
MEAN_ELEMENT_THEORY = SGP/SGP4

EPOCH          = 2025-11-03T12:45:40.093056
MEAN_MOTION    = 14.47206590
ECCENTRICITY   = .0006222
INCLINATION    = 34.9932
RA_OF_ASC_NODE = 249.5413
ARG_OF_PERICENTER = 265.2095
MEAN_ANOMALY   = 94.7885

EPHEMERIS_TYPE = 0
CLASSIFICATION_TYPE = U
NORAD_CAT_ID   = 3597
ELEMENT_SET_NO = 999
REV_AT_EPOCH   = 81
BSTAR          = .86746E-4
MEAN_MOTION_DOT = .302E-5
MEAN_MOTION_DDOT = 0

CCSDS_OMM_VERS = 2.0
CREATION_DATE  = 
ORIGINATOR     = 

OBJECT_NAME    = ISIS 1
OBJECT_ID      = 1969-009A
CENTER_NAME    = EARTH
REF_FRAME      = TEME
TIME_SYSTEM    = UTC
MEAN_ELEMENT_THEORY = SGP/SGP4

EPOCH          = 2025-11-03T14:04:59.139840
MEAN_MOTION    = 11.30331999
ECCENTRICITY   = .1707852
INCLINATION    = 88.4532
RA_OF_ASC_NODE = 169.0755
ARG_OF_PERICENTER = 343.8075
MEAN_ANOMALY   = 11.4242

EPHEMERIS_TYPE = 0
CLASSIFICATION_TYPE = U
NORAD_CAT_ID   = 3669
ELEMENT_SET_NO = 999
REV_AT_EPOCH   = 33428
BSTAR          = .14403E-3
MEAN_MOTION_DOT = .205E-5
MEAN_MOTION_DDOT = 0

CCSDS_OMM_VERS = 2.0
CREATION_DATE  = 
ORIGINATOR     = 

OBJECT_NAME    = SERT 2
OBJECT_ID      = 1970-009A
CENTER_NAME    = EARTH
REF_FRAME      = TEME
TIME_SYSTEM    = UTC
MEAN_ELEMENT_THEORY = SGP/SGP4

EPOCH          = 2025-11-03T15:42:53.018784
MEAN_MOTION    = 13.58710498
ECCENTRICITY   = .0005486
INCLINATION    = 99.2581
RA_OF_ASC_NODE = 252.7480
ARG_OF_PERICENTER = 120.4216
MEAN_ANOMALY   = 52.8943

EPHEMERIS_TYPE = 0
CLASSIFICATION_TYPE = U
NORAD_CAT_ID   = 4327
ELEMENT_SET_NO = 999
REV_AT_EPOCH   = 76277
BSTAR          = .50646E-4
MEAN_MOTION_DOT = -.4E-7
MEAN_MOTION_DDOT = 0

CCSDS_OMM_VERS = 2.0
CREATION_DATE  = 
ORIGINATOR     = 

OBJECT_NAME    = SL-3 R/B
OBJECT_ID      = 1971-028B
CENTER_NAME    = EARTH
REF_FRAME      = TEME
TIME_SYSTEM    = UTC
MEAN_ELEMENT_THEORY = SGP/SGP4

EPOCH          = 2025-11-03T18:14:39.500160
MEAN_MOTION    = 15.51676934
ECCENTRICITY   = .0022913
INCLINATION    = 81.2418
RA_OF_ASC_NODE = 206.3884
ARG_OF_PERICENTER = 22.0433
MEAN_ANOMALY   = 338.1795

EPHEMERIS_TYPE = 0
CLASSIFICATION_TYPE = U
NORAD_CAT_ID   = 5118
ELEMENT_SET_NO = 999
REV_AT_EPOCH   = 96908
BSTAR          = .5148E-3
MEAN_MOTION_DOT = .31051E-3
MEAN_MOTION_DDOT = 0

CCSDS_OMM_VERS = 2.0
CREATION_DATE  = 
ORIGINATOR     = 

OBJECT_NAME    = ASTEX 1
OBJECT_ID      = 1971-089A
CENTER_NAME    = EARTH
REF_FRAME      = TEME
TIME_SYSTEM    = UTC
MEAN_ELEMENT_THEORY = SGP/SGP4

EPOCH          = 2025-11-03T17:31:57.233856
MEAN_MOTION    = 14.50566041
ECCENTRICITY   = .0016912
INCLINATION    = 92.7117
RA_OF_ASC_NODE = 111.0050
ARG_OF_PERICENTER = 143.5889
MEAN_ANOMALY   = 216.6471

EPHEMERIS_TYPE = 0
CLASSIFICATION_TYPE = U
NORAD_CAT_ID   = 5560
ELEMENT_SET_NO = 999
REV_AT_EPOCH   = 84404
BSTAR          = .18076E-3
MEAN_MOTION_DOT = .708E-5
MEAN_MOTION_DDOT = 0

CCSDS_OMM_VERS = 2.0
CREATION_DATE  = 
ORIGINATOR     = 

OBJECT_NAME    = SL-8 R/B
OBJECT_ID      = 1971-119B
CENTER_NAME    = EARTH
REF_FRAME      = TEME
TIME_SYSTEM    = UTC
MEAN_ELEMENT_THEORY = SGP/SGP4

EPOCH          = 2025-11-03T14:01:38.651232
MEAN_MOTION    = 14.34800192
ECCENTRICITY   = .0561363
INCLINATION    = 73.8891
RA_OF_ASC_NODE = 50.8912
ARG_OF_PERICENTER = 43.1597
MEAN_ANOMALY   = 321.2158

EPHEMERIS_TYPE = 0
CLASSIFICATION_TYPE = U
NORAD_CAT_ID   = 5730
ELEMENT_SET_NO = 999
REV_AT_EPOCH   = 63738
BSTAR          = .31483E-3
MEAN_MOTION_DOT = .5893E-4
MEAN_MOTION_DDOT = 0

CCSDS_OMM_VERS = 2.0
CREATION_DATE  = 
ORIGINATOR     = 

OBJECT_NAME    = OAO 3 (COPERNICUS)
OBJECT_ID      = 1972-065A
CENTER_NAME    = EARTH
REF_FRAME      = TEME
TIME_SYSTEM    = UTC
MEAN_ELEMENT_THEORY = SGP/SGP4

EPOCH          = 2025-11-02T07:36:47.160000
MEAN_MOTION    = 14.59851633
ECCENTRICITY   = .00069344
INCLINATION    = 35.0063
RA_OF_ASC_NODE = 302.9284
ARG_OF_PERICENTER = 203.1556
MEAN_ANOMALY   = 173.7631

EPHEMERIS_TYPE = 0
CLASSIFICATION_TYPE = U
NORAD_CAT_ID   = 6153
ELEMENT_SET_NO = 999
REV_AT_EPOCH   = 82757
BSTAR          = .10890343E-3
MEAN_MOTION_DOT = .508E-5
MEAN_MOTION_DDOT = 0

